GSAT0101 (PRN E11)      
1 37846U 11060A   21298.61686335 -.00000085  00000-0  00000-0 0  9990
2 37846  56.9009  27.7327 0000558 343.9537  16.0756  1.70475255 62211
GSAT0102 (PRN E12)      
1 37847U 11060B   21297.31220953 -.00000089  00000-0  00000-0 0  9991
2 37847  56.9014  27.7678 0002380 294.8719  30.8642  1.70475537 62196
GSAT0103 (PRN E19)      
1 38857U 12055A   21298.07114792  .00000054  00000-0  00000-0 0  9996
2 38857  55.0723 148.1726 0001472 243.4448 116.6295  1.70473895 56091
GSAT0104 (PRN E20)      
1 38858U 12055B   21298.62822772  .00000056  00000-0  00000-0 0  9994
2 38858  55.0727 148.1587 0001241 115.3856 244.7147  1.70474205 56102
GSAT0201 (PRN E18)      
1 40128U 14050A   21298.74438607 -.00000088  00000-0  00000-0 0  9993
2 40128  50.4165 341.6343 1638650 115.8960 261.9182  1.85519431 46861
GSAT0202 (PRN E14)      
1 40129U 14050B   21299.00626097 -.00000085  00000-0  00000-0 0  9993
2 40129  50.4451 340.6773 1635778 116.7123 260.9751  1.85520157 49035
GSAT0203 (PRN E26)      
1 40544U 15017A   21298.39866987 -.00000086  00000-0  00000-0 0  9994
2 40544  56.6956  27.8042 0004244 231.7860 128.2063  1.70475261 40290
GSAT0204 (PRN E22)      
1 40545U 15017B   21298.65113597 -.00000085  00000-0  00000-0 0  9995
2 40545  56.7017  27.8086 0004311 218.0906 141.9098  1.70475929  3348
GSAT0205 (PRN E24)      
1 40889U 15045A   21297.24531795 -.00000006  00000-0  00000-0 0  9998
2 40889  55.7862 268.4860 0004698 347.2537  12.7043  1.70474963 38083
GSAT0206 (PRN E30)      
1 40890U 15045B   21299.22454215  .00000003  00000-0  00000-0 0  9997
2 40890  55.7847 268.4277 0003607 326.8438  33.1130  1.70474942 38140
GSAT0209 (PRN E09)      
1 41174U 15079A   21297.64095807  .00000053  00000-0  00000-0 0  9997
2 41174  55.0881 147.8861 0002635 342.9065  17.1754  1.70473070 35851
GSAT0208 (PRN E08)      
1 41175U 15079B   21298.44720391  .00000055  00000-0  00000-0 0  9992
2 41175  55.0865 147.8627 0001995 355.8206   4.2654  1.70473090 36288
GSAT0211 (PRN E02)      
1 41549U 16030A   21296.22032989 -.00000012  00000-0  00000-0 0  9992
2 41549  55.9317 268.4183 0005127 309.7740  50.1461  1.70474699 33721
GSAT0210 (PRN E01)      
1 41550U 16030B   21298.27282347 -.00000001  00000-0  00000-0 0  9994
2 41550  55.9289 268.3635 0004787 286.5058  73.4165  1.70474689 33758
GSAT0207 (PRN E07)      
1 41859U 16069A   21298.52006057  .00000055  00000-0  00000-0 0  9996
2 41859  54.7477 148.1016 0002102 319.9777  40.0945  1.70473155 30493
GSAT0212 (PRN E03)      
1 41860U 16069B   21298.37349145  .00000054  00000-0  00000-0 0  9998
2 41860  54.7456 148.1035 0002205  13.5738 346.5203  1.70473073 30749
GSAT0213 (PRN E04)      
1 41861U 16069C   21296.39268961  .00000051  00000-0  00000-0 0  9992
2 41861  54.7469 148.1632 0001446 268.4006  91.6796  1.70473227 30579
GSAT0214 (PRN E05)      
1 41862U 16069D   21298.29954026  .00000054  00000-0  00000-0 0  9991
2 41862  54.7459 148.1051 0000537 285.8743  74.2082  1.70473224 30735
GSAT0215 (PRN E21)      
1 43055U 17079A   21298.20309610 -.00000001  00000-0  00000-0 0  9996
2 43055  55.9052 268.1999 0004136 283.1689  76.7595  1.70473876 24075
GSAT0216 (PRN E25)      
1 43056U 17079B   21299.08208767  .00000003  00000-0  00000-0 0  9996
2 43056  55.9050 268.1754 0005889 282.8161  77.0968  1.70473989 24107
GSAT0217 (PRN E27)      
1 43057U 17079C   21298.12907957 -.00000001  00000-0  00000-0 0  9997
2 43057  55.9036 268.2017 0005507 292.1441  67.7717  1.70473987 24079
GSAT0218 (PRN E31)      
1 43058U 17079D   21298.34910140  .00000000  00000-0  00000-0 0  9998
2 43058  55.9038 268.1930 0006308 278.8300  81.0739  1.70473958 24105
GSAT0221 (PRN E15)      
1 43564U 18060A   21298.24770289 -.00000086  00000-0  00000-0 0  9993
2 43564  57.0793  27.5637 0004218 252.2438 107.7411  1.70476306 20250
GSAT0222 (PRN E33)      
1 43565U 18060B   21297.88095478 -.00000087  00000-0  00000-0 0  9994
2 43565  57.0814  27.5736 0003656 257.9127 102.0765  1.70476355 20295
GSAT0219 (PRN E36)      
1 43566U 18060C   21292.23567743 -.00000105  00000-0  00000+0 0  9998
2 43566  57.0801  27.7287 0003085 254.0802 105.8961  1.70476269 20179
GSAT0220 (PRN E13)      
1 43567U 18060D   21298.32147063 -.00000085  00000-0  00000-0 0  9992
2 43567  57.0817  27.5643 0003662 252.6652 107.3257  1.70476321 20263
